[{"OBJECT_NAME":"TECHNOSAT","OBJECT_ID":"2017-042E","EPOCH":"2026-03-09T21:27:07.546176","MEAN_MOTION":15.04288119,"ECCENTRICITY":0.00196291,"INCLINATION":97.4156,"RA_OF_ASC_NODE":230.4429,"ARG_OF_PERICENTER":75.0719,"MEAN_ANOMALY":285.2679,"EPHEMERIS_TYPE":0,"CLASSIFICATION_TYPE":"U","NORAD_CAT_ID":42829,"ELEMENT_SET_NO":999,"REV_AT_EPOCH":47177,"BSTAR":0.00032015047,"MEAN_MOTION_DOT":4.417e-5,"MEAN_MOTION_DDOT":0},{"OBJECT_NAME":"STARLINK-4530","OBJECT_ID":"2022-097F","EPOCH":"2026-03-09T10:38:59.954208","MEAN_MOTION":15.08830673,"ECCENTRICITY":0.00011296,"INCLINATION":53.2163,"RA_OF_ASC_NODE":125.2236,"ARG_OF_PERICENTER":81.6249,"MEAN_ANOMALY":278.4871,"EPHEMERIS_TYPE":0,"CLASSIFICATION_TYPE":"U","NORAD_CAT_ID":53393,"ELEMENT_SET_NO":999,"REV_AT_EPOCH":19863,"BSTAR":1.2236218e-5,"MEAN_MOTION_DOT":-9.3e-7,"MEAN_MOTION_DDOT":0}]
